0 TITAN 3C TRANSTAGE DEB
1 35502U 65108DH  13286.22344406  .00002113  00000-0  80476-2 0  1299
2 35502 027.0494 292.4107 6675536 293.5451 026.6249 02.93157330 88025
0 TITAN 3C TRANSTAGE DEB
1 35502U 65108DH  13295.42956485  .00003387  00000-0  12499-1 0  1302
2 35502 027.0439 288.0060 6675809 300.9052 023.3447 02.93226772 88296
